CCSDS_OMM_VERS = 2.0
CREATION_DATE  = 
ORIGINATOR     = 

OBJECT_NAME    = IDEFIX & ARIANE 42P R/B
OBJECT_ID      = 2002-021B
CENTER_NAME    = EARTH
REF_FRAME      = TEME
TIME_SYSTEM    = UTC
MEAN_ELEMENT_THEORY = SGP/SGP4

EPOCH          = 2026-02-12T06:06:36.790272
MEAN_MOTION    = 14.31007854
ECCENTRICITY   = .00106444
INCLINATION    = 98.5843
RA_OF_ASC_NODE = 342.1691
ARG_OF_PERICENTER = 262.4892
MEAN_ANOMALY   = 97.5082

EPHEMERIS_TYPE = 0
CLASSIFICATION_TYPE = U
NORAD_CAT_ID   = 27422
ELEMENT_SET_NO = 999
REV_AT_EPOCH   = 24038
BSTAR          = .14399624E-3
MEAN_MOTION_DOT = .335E-5
MEAN_MOTION_DDOT = 0

CCSDS_OMM_VERS = 2.0
CREATION_DATE  = 
ORIGINATOR     = 

OBJECT_NAME    = AQUA
OBJECT_ID      = 2002-022A
CENTER_NAME    = EARTH
REF_FRAME      = TEME
TIME_SYSTEM    = UTC
MEAN_ELEMENT_THEORY = SGP/SGP4

EPOCH          = 2026-02-12T05:21:02.143008
MEAN_MOTION    = 14.61913356
ECCENTRICITY   = .00013911
INCLINATION    = 98.4126
RA_OF_ASC_NODE = 10.1336
ARG_OF_PERICENTER = 50.6537
MEAN_ANOMALY   = 5.2643

EPHEMERIS_TYPE = 0
CLASSIFICATION_TYPE = U
NORAD_CAT_ID   = 27424
ELEMENT_SET_NO = 999
REV_AT_EPOCH   = 26501
BSTAR          = .25370635E-3
MEAN_MOTION_DOT = .122E-4
MEAN_MOTION_DDOT = 0

CCSDS_OMM_VERS = 2.0
CREATION_DATE  = 
ORIGINATOR     = 

OBJECT_NAME    = CZ-4B R/B
OBJECT_ID      = 2002-024C
CENTER_NAME    = EARTH
REF_FRAME      = TEME
TIME_SYSTEM    = UTC
MEAN_ELEMENT_THEORY = SGP/SGP4

EPOCH          = 2026-02-12T04:27:23.094144
MEAN_MOTION    = 14.14543030
ECCENTRICITY   = .00511908
INCLINATION    = 98.8898
RA_OF_ASC_NODE = 96.7137
ARG_OF_PERICENTER = 95.5178
MEAN_ANOMALY   = 333.2870

EPHEMERIS_TYPE = 0
CLASSIFICATION_TYPE = U
NORAD_CAT_ID   = 27432
ELEMENT_SET_NO = 999
REV_AT_EPOCH   = 22563
BSTAR          = .49402971E-4
MEAN_MOTION_DOT = .52E-6
MEAN_MOTION_DDOT = 0

CCSDS_OMM_VERS = 2.0
CREATION_DATE  = 
ORIGINATOR     = 

OBJECT_NAME    = MIDORI II (ADEOS-II)
OBJECT_ID      = 2002-056A
CENTER_NAME    = EARTH
REF_FRAME      = TEME
TIME_SYSTEM    = UTC
MEAN_ELEMENT_THEORY = SGP/SGP4

EPOCH          = 2026-02-11T21:38:31.964640
MEAN_MOTION    = 14.29265684
ECCENTRICITY   = .0002174
INCLINATION    = 98.7721
RA_OF_ASC_NODE = 1.2090
ARG_OF_PERICENTER = 78.8272
MEAN_ANOMALY   = 281.3154

EPHEMERIS_TYPE = 0
CLASSIFICATION_TYPE = U
NORAD_CAT_ID   = 27597
ELEMENT_SET_NO = 999
REV_AT_EPOCH   = 20661
BSTAR          = .16544E-3
MEAN_MOTION_DOT = .375E-5
MEAN_MOTION_DDOT = 0

CCSDS_OMM_VERS = 2.0
CREATION_DATE  = 
ORIGINATOR     = 

OBJECT_NAME    = H-2A R/B
OBJECT_ID      = 2002-056E
CENTER_NAME    = EARTH
REF_FRAME      = TEME
TIME_SYSTEM    = UTC
MEAN_ELEMENT_THEORY = SGP/SGP4

EPOCH          = 2026-02-11T22:51:00.094752
MEAN_MOTION    = 14.33742628
ECCENTRICITY   = .0069123
INCLINATION    = 98.3153
RA_OF_ASC_NODE = 4.3049
ARG_OF_PERICENTER = 237.8424
MEAN_ANOMALY   = 164.1912

EPHEMERIS_TYPE = 0
CLASSIFICATION_TYPE = U
NORAD_CAT_ID   = 27601
ELEMENT_SET_NO = 999
REV_AT_EPOCH   = 21042
BSTAR          = .13714E-3
MEAN_MOTION_DOT = .349E-5
MEAN_MOTION_DDOT = 0

CCSDS_OMM_VERS = 2.0
CREATION_DATE  = 
ORIGINATOR     = 

OBJECT_NAME    = CZ-4B R/B
OBJECT_ID      = 2003-049C
CENTER_NAME    = EARTH
REF_FRAME      = TEME
TIME_SYSTEM    = UTC
MEAN_ELEMENT_THEORY = SGP/SGP4

EPOCH          = 2026-02-11T22:32:31.265664
MEAN_MOTION    = 14.54992200
ECCENTRICITY   = .0047315
INCLINATION    = 98.6851
RA_OF_ASC_NODE = 36.8397
ARG_OF_PERICENTER = 311.3092
MEAN_ANOMALY   = 48.4035

EPHEMERIS_TYPE = 0
CLASSIFICATION_TYPE = U
NORAD_CAT_ID   = 28059
ELEMENT_SET_NO = 999
REV_AT_EPOCH   = 18285
BSTAR          = .13982E-3
MEAN_MOTION_DOT = .559E-5
MEAN_MOTION_DDOT = 0

CCSDS_OMM_VERS = 2.0
CREATION_DATE  = 
ORIGINATOR     = 

OBJECT_NAME    = CZ-2C R/B
OBJECT_ID      = 2004-012C
CENTER_NAME    = EARTH
REF_FRAME      = TEME
TIME_SYSTEM    = UTC
MEAN_ELEMENT_THEORY = SGP/SGP4

EPOCH          = 2026-02-12T03:03:42.790176
MEAN_MOTION    = 15.61574828
ECCENTRICITY   = .00155554
INCLINATION    = 97.7300
RA_OF_ASC_NODE = 106.0521
ARG_OF_PERICENTER = 48.4261
MEAN_ANOMALY   = 311.8326

EPHEMERIS_TYPE = 0
CLASSIFICATION_TYPE = U
NORAD_CAT_ID   = 28222
ELEMENT_SET_NO = 999
REV_AT_EPOCH   = 20028
BSTAR          = .60667051E-3
MEAN_MOTION_DOT = .52475E-3
MEAN_MOTION_DDOT = 0

CCSDS_OMM_VERS = 2.0
CREATION_DATE  = 
ORIGINATOR     = 

OBJECT_NAME    = SL-16 R/B
OBJECT_ID      = 2004-021B
CENTER_NAME    = EARTH
REF_FRAME      = TEME
TIME_SYSTEM    = UTC
MEAN_ELEMENT_THEORY = SGP/SGP4

EPOCH          = 2026-02-12T01:42:31.991040
MEAN_MOTION    = 14.14591499
ECCENTRICITY   = .00030571
INCLINATION    = 70.9994
RA_OF_ASC_NODE = 286.2579
ARG_OF_PERICENTER = 73.5276
MEAN_ANOMALY   = 286.6182

EPHEMERIS_TYPE = 0
CLASSIFICATION_TYPE = U
NORAD_CAT_ID   = 28353
ELEMENT_SET_NO = 999
REV_AT_EPOCH   = 11921
BSTAR          = .15696896E-3
MEAN_MOTION_DOT = .254E-5
MEAN_MOTION_DDOT = 0

CCSDS_OMM_VERS = 2.0
CREATION_DATE  = 
ORIGINATOR     = 

OBJECT_NAME    = CZ-4B R/B
OBJECT_ID      = 2004-035C
CENTER_NAME    = EARTH
REF_FRAME      = TEME
TIME_SYSTEM    = UTC
MEAN_ELEMENT_THEORY = SGP/SGP4

EPOCH          = 2026-02-12T01:20:04.347168
MEAN_MOTION    = 15.28585904
ECCENTRICITY   = .00339611
INCLINATION    = 97.3547
RA_OF_ASC_NODE = 77.6100
ARG_OF_PERICENTER = 61.2502
MEAN_ANOMALY   = 299.2143

EPHEMERIS_TYPE = 0
CLASSIFICATION_TYPE = U
NORAD_CAT_ID   = 28415
ELEMENT_SET_NO = 999
REV_AT_EPOCH   = 17599
BSTAR          = .32971476E-3
MEAN_MOTION_DOT = .9254E-4
MEAN_MOTION_DDOT = 0

CCSDS_OMM_VERS = 2.0
CREATION_DATE  = 
ORIGINATOR     = 

OBJECT_NAME    = CZ-2C R/B
OBJECT_ID      = 2004-046B
CENTER_NAME    = EARTH
REF_FRAME      = TEME
TIME_SYSTEM    = UTC
MEAN_ELEMENT_THEORY = SGP/SGP4

EPOCH          = 2026-02-12T04:08:30.758208
MEAN_MOTION    = 14.26983284
ECCENTRICITY   = .01383978
INCLINATION    = 98.1994
RA_OF_ASC_NODE = 319.7416
ARG_OF_PERICENTER = 230.0555
MEAN_ANOMALY   = 128.8402

EPHEMERIS_TYPE = 0
CLASSIFICATION_TYPE = U
NORAD_CAT_ID   = 28480
ELEMENT_SET_NO = 999
REV_AT_EPOCH   = 10486
BSTAR          = .67177357E-4
MEAN_MOTION_DOT = .139E-5
MEAN_MOTION_DDOT = 0

CCSDS_OMM_VERS = 2.0
CREATION_DATE  = 
ORIGINATOR     = 

OBJECT_NAME    = ARIANE 5 R/B
OBJECT_ID      = 2004-049H
CENTER_NAME    = EARTH
REF_FRAME      = TEME
TIME_SYSTEM    = UTC
MEAN_ELEMENT_THEORY = SGP/SGP4

EPOCH          = 2026-02-12T00:46:26.301504
MEAN_MOTION    = 14.85214461
ECCENTRICITY   = .0085452
INCLINATION    = 98.2585
RA_OF_ASC_NODE = 210.5367
ARG_OF_PERICENTER = 74.5407
MEAN_ANOMALY   = 286.5224

EPHEMERIS_TYPE = 0
CLASSIFICATION_TYPE = U
NORAD_CAT_ID   = 28499
ELEMENT_SET_NO = 999
REV_AT_EPOCH   = 14198
BSTAR          = .12840592E-3
MEAN_MOTION_DOT = .1111E-4
MEAN_MOTION_DDOT = 0

CCSDS_OMM_VERS = 2.0
CREATION_DATE  = 
ORIGINATOR     = 

OBJECT_NAME    = CZ-2D R/B
OBJECT_ID      = 2005-024B
CENTER_NAME    = EARTH
REF_FRAME      = TEME
TIME_SYSTEM    = UTC
MEAN_ELEMENT_THEORY = SGP/SGP4

EPOCH          = 2026-02-12T00:48:46.493280
MEAN_MOTION    = 15.57880867
ECCENTRICITY   = .00076091
INCLINATION    = 97.3618
RA_OF_ASC_NODE = 57.2859
ARG_OF_PERICENTER = 107.7875
MEAN_ANOMALY   = 252.4211

EPHEMERIS_TYPE = 0
CLASSIFICATION_TYPE = U
NORAD_CAT_ID   = 28738
ELEMENT_SET_NO = 999
REV_AT_EPOCH   = 13578
BSTAR          = .54097807E-3
MEAN_MOTION_DOT = .40423E-3
MEAN_MOTION_DDOT = 0

